{"type": "FeatureCollection", "features": [{"type": "Feature", "properties": {"norad_id": 50032, "name": "COSMOS 1408 DEB", "group": "cosmos-1408-debris", "lat": -82.48495687304496, "lon": -37.017053454237676, "alt_km": 430.34144419877794, "timestamp": "2025-12-10T05:46:14.092727+00:00", "meta": {"OBJECT_NAME": "COSMOS 1408 DEB", "OBJECT_ID": "1982-092RU", "EPOCH": "2025-12-09T16:10:49.368000", "MEAN_MOTION": 15.45645402, "ECCENTRICITY": 0.0014995, "INCLINATION": 82.5641, "RA_OF_ASC_NODE": 61.6506, "ARG_OF_PERICENTER": 220.3653, "MEAN_ANOMALY": 139.6485, "EPHEMERIS_TYPE": 0, "CLASSIFICATION_TYPE": "U", "NORAD_CAT_ID": 50032, "ELEMENT_SET_NO": 999, "REV_AT_EPOCH": 22556, "BSTAR": 0.00015847, "MEAN_MOTION_DOT": 7.706e-05, "MEAN_MOTION_DDOT": 0}, "tle": {"line1": "1 50032U 82092RU  25343.67418250  .00007706  00000+0  15847-3 0  9998", "line2": "2 50032  82.5641  61.6506 0014995 220.3653 139.6485 15.45645402225563"}}, "geometry": {"type": "Point", "coordinates": [-37.017053454237676, -82.48495687304496]}}, {"type": "Feature", "properties": {"norad_id": 50058, "name": "COSMOS 1408 DEB", "group": "cosmos-1408-debris", "lat": -53.40759533427027, "lon": 61.892660403600864, "alt_km": 394.0801813252792, "timestamp": "2025-12-10T05:46:14.092749+00:00", "meta": {"OBJECT_NAME": "COSMOS 1408 DEB", "OBJECT_ID": "1982-092SW", "EPOCH": "2025-12-09T06:57:57.674304", "MEAN_MOTION": 15.63783016, "ECCENTRICITY": 0.0016385, "INCLINATION": 82.6128, "RA_OF_ASC_NODE": 72.9508, "ARG_OF_PERICENTER": 110.9292, "MEAN_ANOMALY": 249.3723, "EPHEMERIS_TYPE": 0, "CLASSIFICATION_TYPE": "U", "NORAD_CAT_ID": 50058, "ELEMENT_SET_NO": 999, "REV_AT_EPOCH": 22750, "BSTAR": 0.0004022, "MEAN_MOTION_DOT": 0.00037979, "MEAN_MOTION_DDOT": 0}, "tle": {"line1": "1 50058U 82092SW  25343.29025086  .00037979  00000+0  40220-3 0  9993", "line2": "2 50058  82.6128  72.9508 0016385 110.9292 249.3723 15.63783016227501"}}, "geometry": {"type": "Point", "coordinates": [61.892660403600864, -53.40759533427027]}}, {"type": "Feature", "properties": {"norad_id": 50404, "name": "COSMOS 1408 DEB", "group": "cosmos-1408-debris", "lat": 31.69511299373368, "lon": 32.73803663004894, "alt_km": 462.8530539374533, "timestamp": "2025-12-10T05:46:14.092762+00:00", "meta": {"OBJECT_NAME": "COSMOS 1408 DEB", "OBJECT_ID": "1982-092ADS", "EPOCH": "2025-12-09T02:07:31.133856", "MEAN_MOTION": 15.1299152, "ECCENTRICITY": 0.01734954, "INCLINATION": 82.2038, "RA_OF_ASC_NODE": 218.7693, "ARG_OF_PERICENTER": 211.4724, "MEAN_ANOMALY": 147.6039, "EPHEMERIS_TYPE": 0, "CLASSIFICATION_TYPE": "U", "NORAD_CAT_ID": 50404, "ELEMENT_SET_NO": 999, "REV_AT_EPOCH": 21138, "BSTAR": 0.0031720673, "MEAN_MOTION_DOT": 0.00081978, "MEAN_MOTION_DDOT": 0}, "tle": {"line1": "1 50404U 82092ADS 25343.08855479  .00081978  00000+0  31721-2 0  9995", "line2": "2 50404  82.2038 218.7693 0173495 211.4724 147.6039 15.12991520211384"}}, "geometry": {"type": "Point", "coordinates": [32.73803663004894, 31.69511299373368]}}, {"type": "Feature", "properties": {"norad_id": 50621, "name": "COSMOS 1408 DEB", "group": "cosmos-1408-debris", "lat": 28.480764232371858, "lon": 80.8427463996018, "alt_km": 409.9584509958577, "timestamp": "2025-12-10T05:46:14.092774+00:00", "meta": {"OBJECT_NAME": "COSMOS 1408 DEB", "OBJECT_ID": "1982-092ALR", "EPOCH": "2025-12-09T06:30:05.287392", "MEAN_MOTION": 15.56380529, "ECCENTRICITY": 0.0028746, "INCLINATION": 82.5697, "RA_OF_ASC_NODE": 77.7916, "ARG_OF_PERICENTER": 165.1376, "MEAN_ANOMALY": 195.0731, "EPHEMERIS_TYPE": 0, "CLASSIFICATION_TYPE": "U", "NORAD_CAT_ID": 50621, "ELEMENT_SET_NO": 999, "REV_AT_EPOCH": 22196, "BSTAR": 0.00049841, "MEAN_MOTION_DOT": 0.00035943, "MEAN_MOTION_DDOT": 0}, "tle": {"line1": "1 50621U 82092ALR 25343.27089453  .00035943  00000+0  49841-3 0  9992", "line2": "2 50621  82.5697  77.7916 0028746 165.1376 195.0731 15.56380529221966"}}, "geometry": {"type": "Point", "coordinates": [80.8427463996018, 28.480764232371858]}}]}